SPOT 7                  
1 40053U 14034A   17346.48328816  .00000025  00000-0  15279-4 0  9990
2 40053  98.2132  51.5551 0001499  70.6885 289.4476 14.58549397183869
